{"fetched_at":"2026-03-29T16:36:15Z","count":15609,"tles":[{"name":"STARLINK-3075","line1":"1 49409U 21104B   26087.87002676  .00000223  00000+0  32119-4 0  9999","line2":"2 49409  53.2176 143.0173 0001317  84.8455 275.2688 15.08840370241536","category":"Starlink"}]}